STARLINK-35766          
1 67181U 25303U   26164.58504183  .00020519  00000+0  75296-3 0  9997
2 67181  42.9983 128.9240 0003082 278.3797  81.6705 15.27583525 27405
STARLINK-35782          
1 67182U 25303V   26165.16323731  .00021006  00000+0  77074-3 0  9999
2 67182  43.0018 125.5232 0001080 284.1426  75.9306 15.27578169 27491
STARLINK-35719          
1 67183U 25303W   26165.16966748  .00018113  00000+0  66600-3 0  9999
2 67183  42.9976 125.5682 0001772 273.5761  86.4888 15.27585746 27495
STARLINK-35910          
1 67184U 25303X   26165.15938554  .00019573  00000+0  71818-3 0  9991
2 67184  43.0057 125.4951 0001809 272.3394  87.7251 15.27612769 27490
STARLINK-35859          
1 67185U 25303Y   26165.16452551  .00028822  00000+0  10522-2 0  9992
2 67185  42.9958 125.5286 0000604 166.4530 193.6338 15.27600606 27498
STARLINK-35857          
1 67186U 25303Z   26165.17994703  .00026014  00000+0  95156-3 0  9992
2 67186  43.0066 125.6516 0000436 225.0959 134.9857 15.27579413 27493
STARLINK-35880          
1 67187U 25303AA  26165.17225972  .00022946  00000+0  84065-3 0  9995
2 67187  42.9995 125.5888 0002824 268.9525  91.1003 15.27582119 27496
STARLINK-35675          
1 67188U 25303AB  26165.15825028  .00017886  00000+0  65774-3 0  9995
2 67188  43.0084 126.3522 0003091 281.0018  79.0486 15.27585560 27484
STARLINK-35889          
1 67189U 25303AC  26164.62873581  .00019141  00000+0  70300-3 0  9991
2 67189  42.9997 129.2564 0000346 350.7117   9.3728 15.27593561 27405
STARLINK-35888          
1 67190U 25303AD  26164.61843488  .00025133  00000+0  91876-3 0  9994
2 67190  43.0027 129.1790 0002993 265.5223  94.5287 15.27612585 27408
STARLINK-35716          
1 67191U 25303AE  26165.15696378  .00023717  00000+0  86825-3 0  9993
2 67191  42.9955 126.3330 0002864 272.0832  87.9691 15.27591012 27486
STARLINK-36182          
1 67192U 25304A   26164.75112548  .00002018  00000+0  17684-3 0  9990
2 67192  70.0008 292.2598 0003052 267.9758  92.1052 14.98333602 28247
STARLINK-36279          
1 67193U 25304B   26165.08058505  .00002006  00000+0  17584-3 0  9996
2 67193  70.0015 291.3977 0003079 269.9473  90.1334 14.98332920 28324
STARLINK-36284          
1 67194U 25304C   26165.10145169  .00002270  00000+0  19793-3 0  9990
2 67194  70.0019 291.4742 0003238 267.6928  92.3860 14.98337571 28322
STARLINK-36291          
1 67195U 25304D   26165.05157782  .00010548  00000+0  89046-3 0  9994
2 67195  70.0008 291.6951 0003815 274.4725  85.5998 14.98328544 28312
STARLINK-36239          
1 67196U 25304E   26164.78017943  .00001147  00000+0  10392-3 0  9991
2 67196  70.0017 292.3613 0003167 266.0684  94.0113 14.98338596 28274
STARLINK-36283          
1 67197U 25304F   26165.06388745  .00002718  00000+0  23545-3 0  9994
2 67197  70.0017 291.3381 0003020 270.4125  89.6688 14.98336305 28322
STARLINK-36267          
1 67198U 25304G   26165.09310809  .00002511  00000+0  21818-3 0  9996
2 67198  70.0016 291.4414 0003073 269.0506  91.0300 14.98334480 28291
STARLINK-36268          
1 67199U 25304H   26165.10162172  .00002786  00000+0  24112-3 0  9991
2 67199  70.0020 291.4679 0002813 269.0381  91.0456 14.98335469 28315
STARLINK-36270          
1 67200U 25304J   26165.07657500  .00002890  00000+0  24984-3 0  9997
2 67200  70.0018 291.3898 0002804 268.4726  91.6112 14.98332947 28327
STARLINK-36262          
1 67201U 25304K   26164.77601899  .00004216  00000+0  36096-3 0  9995
2 67201  70.0015 292.3430 0002879 272.8963  87.1866 14.98329602 28276
STARLINK-36263          
1 67202U 25304L   26165.09728653  .00004111  00000+0  35197-3 0  9995
2 67202  70.0018 291.4561 0003150 271.8770  88.2028 14.98350544 28320
STARLINK-36224          
1 67203U 25304M   26165.08894440 -.00001673  00000+0 -13248-3 0  9998
2 67203  70.0016 291.4223 0002728 268.5365  91.5482 14.98322607 28327
STARLINK-36185          
1 67204U 25304N   26165.07223454  .00002230  00000+0  19462-3 0  9991
2 67204  70.0016 291.3665 0003133 269.4517  90.6284 14.98334818 28324
STARLINK-36197          
1 67205U 25304P   26165.05971251  .00001402  00000+0  12526-3 0  9999
2 67205  70.0016 291.3250 0003114 268.5115  91.5687 14.98332819 28290
STARLINK-36056          
1 67206U 25304Q   26164.77618819  .00001957  00000+0  17185-3 0  9997
2 67206  70.0013 292.3390 0003256 267.3379  92.7407 14.98318142 28241
STARLINK-36225          
1 67207U 25304R   26165.09327286  .00002295  00000+0  20003-3 0  9998
2 67207  70.0011 291.4376 0003177 268.9965  91.0830 14.98333251 28323
STARLINK-36265          
1 67208U 25304S   26164.77183101  .00001762  00000+0  15538-3 0  9994
2 67208  70.0014 292.3297 0002868 269.5096  90.5734 14.98332847 28278
STARLINK-36226          
1 67209U 25304T   26165.05139220  .00001364  00000+0  12208-3 0  9999
2 67209  70.0018 291.7006 0003344 268.2625  91.8151 14.98331865 28319
STARLINK-36173          
1 67210U 25304U   26165.08476039  .00002093  00000+0  18318-3 0  9994
2 67210  70.0013 291.4104 0002758 270.3688  89.7155 14.98332704 28327
