OBJECT_NAME,OBJECT_ID,EPOCH,MEAN_MOTION,ECCENTRICITY,INCLINATION,RA_OF_ASC_NODE,ARG_OF_PERICENTER,MEAN_ANOMALY,EPHEMERIS_TYPE,CLASSIFICATION_TYPE,NORAD_CAT_ID,ELEMENT_SET_NO,REV_AT_EPOCH,BSTAR,MEAN_MOTION_DOT,MEAN_MOTION_DDOT
STARLINK-35766,2025-303U,2026-06-13T14:02:27.614112,15.27583525,.0003082,42.9983,128.9240,278.3797,81.6705,0,U,67181,999,2740,.75296E-3,.20519E-3,0
STARLINK-35782,2025-303V,2026-06-14T03:55:03.703584,15.27578169,.000108,43.0018,125.5232,284.1426,75.9306,0,U,67182,999,2749,.77074E-3,.21006E-3,0
STARLINK-35719,2025-303W,2026-06-14T04:04:19.270272,15.27585746,.0001772,42.9976,125.5682,273.5761,86.4888,0,U,67183,999,2749,.666E-3,.18113E-3,0
STARLINK-35910,2025-303X,2026-06-14T03:49:30.910656,15.27612769,.0001809,43.0057,125.4951,272.3394,87.7251,0,U,67184,999,2749,.71818E-3,.19573E-3,0
STARLINK-35859,2025-303Y,2026-06-14T03:56:55.004064,15.27600606,.0000604,42.9958,125.5286,166.4530,193.6338,0,U,67185,999,2749,.10522E-2,.28822E-3,0
STARLINK-35857,2025-303Z,2026-06-14T04:19:07.423392,15.27579413,.0000436,43.0066,125.6516,225.0959,134.9857,0,U,67186,999,2749,.95156E-3,.26014E-3,0
STARLINK-35880,2025-303AA,2026-06-14T04:08:03.239808,15.27582119,.0002824,42.9995,125.5888,268.9525,91.1003,0,U,67187,999,2749,.84065E-3,.22946E-3,0
STARLINK-35675,2025-303AB,2026-06-14T03:47:52.824192,15.27585560,.0003091,43.0084,126.3522,281.0018,79.0486,0,U,67188,999,2748,.65774E-3,.17886E-3,0
STARLINK-35889,2025-303AC,2026-06-13T15:05:22.773984,15.27593561,.00003464,42.9997,129.2564,350.7117,9.3728,0,U,67189,999,2740,.70300287E-3,.19141E-3,0
STARLINK-35888,2025-303AD,2026-06-13T14:50:32.773632,15.27612585,.00029934,43.0027,129.1790,265.5223,94.5287,0,U,67190,999,2740,.91876407E-3,.25133E-3,0
STARLINK-35716,2025-303AE,2026-06-14T03:46:01.670592,15.27591012,.0002864,42.9955,126.3330,272.0832,87.9691,0,U,67191,999,2748,.86825E-3,.23717E-3,0
STARLINK-36182,2025-304A,2026-06-13T18:01:37.241472,14.98333602,.00030528,70.0008,292.2598,267.9758,92.1052,0,U,67192,999,2824,.17684316E-3,.2018E-4,0
STARLINK-36279,2025-304B,2026-06-14T01:56:02.548320,14.98332920,.0003079,70.0015,291.3977,269.9473,90.1334,0,U,67193,999,2832,.17584E-3,.2006E-4,0
STARLINK-36284,2025-304C,2026-06-14T02:26:05.426016,14.98337571,.0003238,70.0019,291.4742,267.6928,92.3860,0,U,67194,999,2832,.19793E-3,.227E-4,0
STARLINK-36291,2025-304D,2026-06-14T01:14:16.323648,14.98328544,.0003815,70.0008,291.6951,274.4725,85.5998,0,U,67195,999,2831,.89046E-3,.10548E-3,0
STARLINK-36239,2025-304E,2026-06-13T18:43:27.502752,14.98338596,.00031671,70.0017,292.3613,266.0684,94.0113,0,U,67196,999,2827,.10392089E-3,.1147E-4,0
STARLINK-36283,2025-304F,2026-06-14T01:31:59.875680,14.98336305,.000302,70.0017,291.3381,270.4125,89.6688,0,U,67197,999,2832,.23545E-3,.2718E-4,0
STARLINK-36267,2025-304G,2026-06-14T02:14:04.538976,14.98334480,.0003073,70.0016,291.4414,269.0506,91.0300,0,U,67198,999,2829,.21818E-3,.2511E-4,0
STARLINK-36268,2025-304H,2026-06-14T02:26:20.116608,14.98335469,.0002813,70.0020,291.4679,269.0381,91.0456,0,U,67199,999,2831,.24112E-3,.2786E-4,0
STARLINK-36270,2025-304J,2026-06-14T01:50:16.080000,14.98332947,.0002804,70.0018,291.3898,268.4726,91.6112,0,U,67200,999,2832,.24984E-3,.289E-4,0
STARLINK-36262,2025-304K,2026-06-13T18:37:28.040736,14.98329602,.00028798,70.0015,292.3430,272.8963,87.1866,0,U,67201,999,2827,.36095998E-3,.4216E-4,0
STARLINK-36263,2025-304L,2026-06-14T02:20:05.556192,14.98350544,.000315,70.0018,291.4561,271.8770,88.2028,0,U,67202,999,2832,.35197E-3,.4111E-4,0
STARLINK-36224,2025-304M,2026-06-14T02:08:04.796160,14.98322607,.0002728,70.0016,291.4223,268.5365,91.5482,0,U,67203,999,2832,-.13248E-3,-.1673E-4,0
STARLINK-36185,2025-304N,2026-06-14T01:44:01.064256,14.98334818,.0003133,70.0016,291.3665,269.4517,90.6284,0,U,67204,999,2832,.19462E-3,.223E-4,0
STARLINK-36197,2025-304P,2026-06-14T01:25:59.160864,14.98332819,.0003114,70.0016,291.3250,268.5115,91.5687,0,U,67205,999,2829,.12526E-3,.1402E-4,0
STARLINK-36056,2025-304Q,2026-06-13T18:37:42.659616,14.98318142,.00032569,70.0013,292.3390,267.3379,92.7407,0,U,67206,999,2824,.17184652E-3,.1957E-4,0
STARLINK-36225,2025-304R,2026-06-14T02:14:18.775104,14.98333251,.0003177,70.0011,291.4376,268.9965,91.0830,0,U,67207,999,2832,.20003E-3,.2295E-4,0
STARLINK-36265,2025-304S,2026-06-13T18:31:26.199264,14.98332847,.00028688,70.0014,292.3297,269.5096,90.5734,0,U,67208,999,2827,.15537778E-3,.1762E-4,0
STARLINK-36226,2025-304T,2026-06-14T01:14:00.286080,14.98331865,.0003344,70.0018,291.7006,268.2625,91.8151,0,U,67209,999,2831,.12208E-3,.1364E-4,0
STARLINK-36173,2025-304U,2026-06-14T02:02:03.297696,14.98332704,.0002758,70.0013,291.4104,270.3688,89.7155,0,U,67210,999,2832,.18318E-3,.2093E-4,0
